<?xml version="1.0" encoding="UTF-8"?>
<ndm xmlns:xsi="http://www.w3.org/2001/XMLSchema-instance" xsi:noNamespaceSchemaLocation="https://sanaregistry.org/r/ndmxml_unqualified/ndmxml-2.0.0-master-2.0.xsd">
<omm id="CCSDS_OMM_VERS" version="2.0">
<header><CREATION_DATE/><ORIGINATOR/></header><body><segment><metadata><OBJECT_NAME>QIANFAN-9</OBJECT_NAME><OBJECT_ID>2024-140J</OBJECT_ID><CENTER_NAME>EARTH</CENTER_NAME><REF_FRAME>TEME</REF_FRAME><TIME_SYSTEM>UTC</TIME_SYSTEM><MEAN_ELEMENT_THEORY>SGP4</MEAN_ELEMENT_THEORY></metadata><data><meanElements><EPOCH>2025-10-30T22:46:53.567904</EPOCH><MEAN_MOTION>13.50975175</MEAN_MOTION><ECCENTRICITY>.00151772</ECCENTRICITY><INCLINATION>88.9735</INCLINATION><RA_OF_ASC_NODE>303.7728</RA_OF_ASC_NODE><ARG_OF_PERICENTER>327.8576</ARG_OF_PERICENTER><MEAN_ANOMALY>32.1648</MEAN_ANOMALY></meanElements><tleParameters><EPHEMERIS_TYPE>0</EPHEMERIS_TYPE><CLASSIFICATION_TYPE>U</CLASSIFICATION_TYPE><NORAD_CAT_ID>60387</NORAD_CAT_ID><ELEMENT_SET_NO>999</ELEMENT_SET_NO><REV_AT_EPOCH>6155</REV_AT_EPOCH><BSTAR>.8947533E-4</BSTAR><MEAN_MOTION_DOT>.7E-6</MEAN_MOTION_DOT><MEAN_MOTION_DDOT>0</MEAN_MOTION_DDOT></tleParameters></data></segment></body></omm>
<omm id="CCSDS_OMM_VERS" version="2.0">
<header><CREATION_DATE/><ORIGINATOR/></header><body><segment><metadata><OBJECT_NAME>QIANFAN-10</OBJECT_NAME><OBJECT_ID>2024-140K</OBJECT_ID><CENTER_NAME>EARTH</CENTER_NAME><REF_FRAME>TEME</REF_FRAME><TIME_SYSTEM>UTC</TIME_SYSTEM><MEAN_ELEMENT_THEORY>SGP4</MEAN_ELEMENT_THEORY></metadata><data><meanElements><EPOCH>2025-10-30T21:06:16.497504</EPOCH><MEAN_MOTION>13.50976238</MEAN_MOTION><ECCENTRICITY>.00130317</ECCENTRICITY><INCLINATION>88.9743</INCLINATION><RA_OF_ASC_NODE>303.1230</RA_OF_ASC_NODE><ARG_OF_PERICENTER>303.9864</ARG_OF_PERICENTER><MEAN_ANOMALY>56.0048</MEAN_ANOMALY></meanElements><tleParameters><EPHEMERIS_TYPE>0</EPHEMERIS_TYPE><CLASSIFICATION_TYPE>U</CLASSIFICATION_TYPE><NORAD_CAT_ID>60388</NORAD_CAT_ID><ELEMENT_SET_NO>999</ELEMENT_SET_NO><REV_AT_EPOCH>6167</REV_AT_EPOCH><BSTAR>.70146761E-4</BSTAR><MEAN_MOTION_DOT>.57E-6</MEAN_MOTION_DOT><MEAN_MOTION_DDOT>0</MEAN_MOTION_DDOT></tleParameters></data></segment></body></omm>
<omm id="CCSDS_OMM_VERS" version="2.0">
<header><CREATION_DATE/><ORIGINATOR/></header><body><segment><metadata><OBJECT_NAME>QIANFAN-11</OBJECT_NAME><OBJECT_ID>2024-140L</OBJECT_ID><CENTER_NAME>EARTH</CENTER_NAME><REF_FRAME>TEME</REF_FRAME><TIME_SYSTEM>UTC</TIME_SYSTEM><MEAN_ELEMENT_THEORY>SGP4</MEAN_ELEMENT_THEORY></metadata><data><meanElements><EPOCH>2025-10-30T21:59:32.125056</EPOCH><MEAN_MOTION>13.50972414</MEAN_MOTION><ECCENTRICITY>.00132146</ECCENTRICITY><INCLINATION>88.9670</INCLINATION><RA_OF_ASC_NODE>303.7385</RA_OF_ASC_NODE><ARG_OF_PERICENTER>328.5967</ARG_OF_PERICENTER><MEAN_ANOMALY>31.4394</MEAN_ANOMALY></meanElements><tleParameters><EPHEMERIS_TYPE>0</EPHEMERIS_TYPE><CLASSIFICATION_TYPE>U</CLASSIFICATION_TYPE><NORAD_CAT_ID>60389</NORAD_CAT_ID><ELEMENT_SET_NO>999</ELEMENT_SET_NO><REV_AT_EPOCH>6133</REV_AT_EPOCH><BSTAR>.88006538E-4</BSTAR><MEAN_MOTION_DOT>.69E-6</MEAN_MOTION_DOT><MEAN_MOTION_DDOT>0</MEAN_MOTION_DDOT></tleParameters></data></segment></body></omm>
<omm id="CCSDS_OMM_VERS" version="2.0">
<header><CREATION_DATE/><ORIGINATOR/></header><body><segment><metadata><OBJECT_NAME>QIANFAN-12</OBJECT_NAME><OBJECT_ID>2024-140M</OBJECT_ID><CENTER_NAME>EARTH</CENTER_NAME><REF_FRAME>TEME</REF_FRAME><TIME_SYSTEM>UTC</TIME_SYSTEM><MEAN_ELEMENT_THEORY>SGP4</MEAN_ELEMENT_THEORY></metadata><data><meanElements><EPOCH>2025-10-30T22:29:05.193888</EPOCH><MEAN_MOTION>13.50972855</MEAN_MOTION><ECCENTRICITY>.00123201</ECCENTRICITY><INCLINATION>88.9713</INCLINATION><RA_OF_ASC_NODE>303.7611</RA_OF_ASC_NODE><ARG_OF_PERICENTER>338.0342</ARG_OF_PERICENTER><MEAN_ANOMALY>22.0280</MEAN_ANOMALY></meanElements><tleParameters><EPHEMERIS_TYPE>0</EPHEMERIS_TYPE><CLASSIFICATION_TYPE>U</CLASSIFICATION_TYPE><NORAD_CAT_ID>60390</NORAD_CAT_ID><ELEMENT_SET_NO>999</ELEMENT_SET_NO><REV_AT_EPOCH>6146</REV_AT_EPOCH><BSTAR>.7622329E-4</BSTAR><MEAN_MOTION_DOT>.61E-6</MEAN_MOTION_DOT><MEAN_MOTION_DDOT>0</MEAN_MOTION_DDOT></tleParameters></data></segment></body></omm>
<omm id="CCSDS_OMM_VERS" version="2.0">
<header><CREATION_DATE/><ORIGINATOR/></header><body><segment><metadata><OBJECT_NAME>QIANFAN-13</OBJECT_NAME><OBJECT_ID>2024-140N</OBJECT_ID><CENTER_NAME>EARTH</CENTER_NAME><REF_FRAME>TEME</REF_FRAME><TIME_SYSTEM>UTC</TIME_SYSTEM><MEAN_ELEMENT_THEORY>SGP4</MEAN_ELEMENT_THEORY></metadata><data><meanElements><EPOCH>2025-10-30T21:47:38.000544</EPOCH><MEAN_MOTION>13.50973172</MEAN_MOTION><ECCENTRICITY>.00122391</ECCENTRICITY><INCLINATION>88.9726</INCLINATION><RA_OF_ASC_NODE>303.8587</RA_OF_ASC_NODE><ARG_OF_PERICENTER>341.0526</ARG_OF_PERICENTER><MEAN_ANOMALY>19.0168</MEAN_ANOMALY></meanElements><tleParameters><EPHEMERIS_TYPE>0</EPHEMERIS_TYPE><CLASSIFICATION_TYPE>U</CLASSIFICATION_TYPE><NORAD_CAT_ID>60391</NORAD_CAT_ID><ELEMENT_SET_NO>999</ELEMENT_SET_NO><REV_AT_EPOCH>6148</REV_AT_EPOCH><BSTAR>.85996831E-4</BSTAR><MEAN_MOTION_DOT>.67E-6</MEAN_MOTION_DOT><MEAN_MOTION_DDOT>0</MEAN_MOTION_DDOT></tleParameters></data></segment></body></omm>
<omm id="CCSDS_OMM_VERS" version="2.0">
<header><CREATION_DATE/><ORIGINATOR/></header><body><segment><metadata><OBJECT_NAME>QIANFAN-14</OBJECT_NAME><OBJECT_ID>2024-140P</OBJECT_ID><CENTER_NAME>EARTH</CENTER_NAME><REF_FRAME>TEME</REF_FRAME><TIME_SYSTEM>UTC</TIME_SYSTEM><MEAN_ELEMENT_THEORY>SGP4</MEAN_ELEMENT_THEORY></metadata><data><meanElements><EPOCH>2025-10-30T22:23:02.420160</EPOCH><MEAN_MOTION>13.50973353</MEAN_MOTION><ECCENTRICITY>.00158887</ECCENTRICITY><INCLINATION>88.9705</INCLINATION><RA_OF_ASC_NODE>303.7629</RA_OF_ASC_NODE><ARG_OF_PERICENTER>338.8339</ARG_OF_PERICENTER><MEAN_ANOMALY>21.2153</MEAN_ANOMALY></meanElements><tleParameters><EPHEMERIS_TYPE>0</EPHEMERIS_TYPE><CLASSIFICATION_TYPE>U</CLASSIFICATION_TYPE><NORAD_CAT_ID>60392</NORAD_CAT_ID><ELEMENT_SET_NO>999</ELEMENT_SET_NO><REV_AT_EPOCH>6149</REV_AT_EPOCH><BSTAR>.86481745E-4</BSTAR><MEAN_MOTION_DOT>.68E-6</MEAN_MOTION_DOT><MEAN_MOTION_DDOT>0</MEAN_MOTION_DDOT></tleParameters></data></segment></body></omm>
<omm id="CCSDS_OMM_VERS" version="2.0">
<header><CREATION_DATE/><ORIGINATOR/></header><body><segment><metadata><OBJECT_NAME>QIANFAN-15</OBJECT_NAME><OBJECT_ID>2024-140Q</OBJECT_ID><CENTER_NAME>EARTH</CENTER_NAME><REF_FRAME>TEME</REF_FRAME><TIME_SYSTEM>UTC</TIME_SYSTEM><MEAN_ELEMENT_THEORY>SGP4</MEAN_ELEMENT_THEORY></metadata><data><meanElements><EPOCH>2025-10-30T22:34:53.541408</EPOCH><MEAN_MOTION>13.50971388</MEAN_MOTION><ECCENTRICITY>.00112617</ECCENTRICITY><INCLINATION>88.9728</INCLINATION><RA_OF_ASC_NODE>303.7083</RA_OF_ASC_NODE><ARG_OF_PERICENTER>326.5302</ARG_OF_PERICENTER><MEAN_ANOMALY>33.5136</MEAN_ANOMALY></meanElements><tleParameters><EPHEMERIS_TYPE>0</EPHEMERIS_TYPE><CLASSIFICATION_TYPE>U</CLASSIFICATION_TYPE><NORAD_CAT_ID>60393</NORAD_CAT_ID><ELEMENT_SET_NO>999</ELEMENT_SET_NO><REV_AT_EPOCH>6148</REV_AT_EPOCH><BSTAR>.80671982E-4</BSTAR><MEAN_MOTION_DOT>.64E-6</MEAN_MOTION_DOT><MEAN_MOTION_DDOT>0</MEAN_MOTION_DDOT></tleParameters></data></segment></body></omm>
<omm id="CCSDS_OMM_VERS" version="2.0">
<header><CREATION_DATE/><ORIGINATOR/></header><body><segment><metadata><OBJECT_NAME>QIANFAN-16</OBJECT_NAME><OBJECT_ID>2024-140R</OBJECT_ID><CENTER_NAME>EARTH</CENTER_NAME><REF_FRAME>TEME</REF_FRAME><TIME_SYSTEM>UTC</TIME_SYSTEM><MEAN_ELEMENT_THEORY>SGP4</MEAN_ELEMENT_THEORY></metadata><data><meanElements><EPOCH>2025-10-30T20:30:42.457248</EPOCH><MEAN_MOTION>13.50972317</MEAN_MOTION><ECCENTRICITY>.00139765</ECCENTRICITY><INCLINATION>88.9731</INCLINATION><RA_OF_ASC_NODE>303.8361</RA_OF_ASC_NODE><ARG_OF_PERICENTER>344.1417</ARG_OF_PERICENTER><MEAN_ANOMALY>15.9295</MEAN_ANOMALY></meanElements><tleParameters><EPHEMERIS_TYPE>0</EPHEMERIS_TYPE><CLASSIFICATION_TYPE>U</CLASSIFICATION_TYPE><NORAD_CAT_ID>60394</NORAD_CAT_ID><ELEMENT_SET_NO>999</ELEMENT_SET_NO><REV_AT_EPOCH>6138</REV_AT_EPOCH><BSTAR>.90702137E-4</BSTAR><MEAN_MOTION_DOT>.71E-6</MEAN_MOTION_DOT><MEAN_MOTION_DDOT>0</MEAN_MOTION_DDOT></tleParameters></data></segment></body></omm>

</ndm>
