QIANFAN-9               
1 60387U 24140J   25303.94923111  .00000070  00000+0  89475-4 0  9991
2 60387  88.9735 303.7728 0015177 327.8576  32.1648 13.50975175 61559
QIANFAN-10              
1 60388U 24140K   25303.87935761  .00000057  00000+0  70147-4 0  9999
2 60388  88.9743 303.1230 0013031 303.9864  56.0048 13.50976238 61676
QIANFAN-11              
1 60389U 24140L   25303.91634404  .00000069  00000+0  88007-4 0  9992
2 60389  88.9670 303.7385 0013214 328.5967  31.4394 13.50972414 61339
QIANFAN-12              
1 60390U 24140M   25303.93686567  .00000061  00000+0  76223-4 0  9992
2 60390  88.9713 303.7611 0012320 338.0342  22.0280 13.50972855 61464
QIANFAN-13              
1 60391U 24140N   25303.90807871  .00000067  00000+0  85997-4 0  9997
2 60391  88.9726 303.8587 0012239 341.0526  19.0168 13.50973172 61485
QIANFAN-14              
1 60392U 24140P   25303.93266690  .00000068  00000+0  86482-4 0  9990
2 60392  88.9705 303.7629 0015888 338.8339  21.2153 13.50973353 61499
QIANFAN-15              
1 60393U 24140Q   25303.94089747  .00000064  00000+0  80672-4 0  9999
2 60393  88.9728 303.7083 0011261 326.5302  33.5136 13.50971388 61486
QIANFAN-16              
1 60394U 24140R   25303.85465807  .00000071  00000+0  90702-4 0  9998
2 60394  88.9731 303.8361 0013976 344.1417  15.9295 13.50972317 61381
